NORAD_CAT_ID,OBJECT_NAME,OBJECT_TYPE,EPOCH,MEAN_MOTION,ECCENTRICITY,INCLINATION,RA_OF_ASC_NODE,ARG_OF_PERICENTER,MEAN_ANOMALY,BSTAR,MEAN_MOTION_DOT,MEAN_MOTION_DDOT,TLE_LINE0,TLE_LINE1,TLE_LINE2,SEMIMAJOR_AXIS,PERIOD,APOGEE,PERIGEE,DECAYED
53578.0,STARLINK-4556,PAYLOAD,2022-10-27 22:00:00,15.52939327,0.0001269,53.2173,173.2142,78.0775,171.8003,-0.019746,-0.0112861,0.0,0 STARLINK-4556,1 53578U 22101BD  22300.91667824 -.01128610  00000-0 -19746-1 0  9993,2 53578  53.2173 173.2142 0001269  78.0775 171.8003 15.52939327  1303,6786.286,92.727,409.013,407.29,0.0
53578.0,STARLINK-4556,PAYLOAD,2022-10-28 14:00:01,15.51317264,0.0001081,53.2165,170.0161,72.1381,304.9983,-0.021141,-0.01138244,0.0,0 STARLINK-4556,1 53578U 22101BD  22301.58335648 -.01138244  00000-0 -21141-1 0  9999,2 53578  53.2165 170.0161 0001081  72.1381 304.9983 15.51317264 11003,6791.016,92.824,413.615,412.147,0.0
53578.0,STARLINK-4556,PAYLOAD,2022-10-28 22:00:01,15.50372152,0.0001214,53.2168,168.4221,82.7123,356.5695,-0.010831,-0.00581548,0.0,0 STARLINK-4556,1 53578U 22101BD  22301.91668981 -.00581548  00000-0 -10831-1 0  9997,2 53578  53.2168 168.4221 0001214  82.7123 356.5695 15.50372152  1304,6793.776,92.881,416.465,414.816,0.0
53578.0,STARLINK-4556,PAYLOAD,2022-10-29 08:00:01,15.498877300000002,0.0001152,53.2175,166.4287,92.6104,153.0845,-8.3686e-05,-5.198e-05,0.0,0 STARLINK-4556,1 53578U 22101BD  22302.33334491 -.00005198  00000-0 -83686-4 0  9993,2 53578  53.2175 166.4287 0001152  92.6104 153.0845 15.49887730 11110,6795.191,92.91,417.839,416.273,0.0
53578.0,STARLINK-4556,PAYLOAD,2022-10-29 12:00:00,15.4988514,0.0001188,53.2174,165.6314,95.1792,0.9743,-6.3979e-07,-4.88e-06,0.0,0 STARLINK-4556,1 53578U 22101BD  22302.50001157 -.00000488  00000-0 -63979-6 0  9994,2 53578  53.2174 165.6314 0001188  95.1792   0.9743 15.49885140  1301,6795.199000000001,92.91,417.871,416.257,0.0
53578.0,STARLINK-4556,PAYLOAD,2022-10-29 22:00:01,15.49874175,0.0001445,53.2127,163.6465,76.4183,186.0412,0.00026617,0.00014678,0.0,0 STARLINK-4556,1 53578U 22101BD  22302.91668981  .00014678  00000-0  26617-3 0  9992,2 53578  53.2127 163.6465 0001445  76.4183 186.0412 15.49874175  1301,6795.231,92.911,418.078,416.114,0.0
53578.0,STARLINK-4556,PAYLOAD,2022-10-30 00:00:00,15.49864003,0.0001445,53.2127,163.2486,75.5958,292.028,0.00081921,0.00046284,0.0,0 STARLINK-4556,1 53578U 22101BD  22303.00001157  .00046284  00000-0  81921-3 0  9996,2 53578  53.2127 163.2486 0001445  75.5958 292.0280 15.49864003 11222,6795.261,92.911,418.107,416.144,0.0
53578.0,STARLINK-4556,PAYLOAD,2022-10-30 14:00:01,15.50095168,0.0001163,53.2152,160.4548,88.0739,296.1356,-0.015738,-0.00824019,0.0,0 STARLINK-4556,1 53578U 22101BD  22303.58334491 -.00824019  00000-0 -15738-1 0  9992,2 53578  53.2152 160.4548 0001163  88.0739 296.1356 15.50095168  1308,6794.585,92.898,417.24,415.66,0.0
53578.0,STARLINK-4556,PAYLOAD,2022-10-30 22:00:01,15.49692671,0.0001127,53.2173,158.8626,85.2095,359.8172,-0.020858,-0.01066751,0.0,0 STARLINK-4556,1 53578U 22101BD  22303.91668981 -.01066751  00000-0 -20858-1 0  9994,2 53578  53.2173 158.8626 0001127  85.2095 359.8172 15.49692671  1306,6795.761,92.922,418.392,416.861,0.0
53578.0,STARLINK-4556,PAYLOAD,2022-10-31 14:00:01,15.481523,0.0001402,53.2165,155.6801,67.479,136.939,-0.024749,-0.01203658,0.0,0 STARLINK-4556,1 53578U 22101BD  22304.58334491 -.01203658  00000-0 -24749-1 0  9996,2 53578  53.2165 155.6801 0001402  67.4790 136.9390 15.48152300  1302,6800.268,93.014,423.087,421.18,0.0
53578.0,STARLINK-4556,PAYLOAD,2022-10-31 22:00:01,15.47290996,0.0001239,53.2169,154.094,89.7218,173.0639,-0.024007,-0.01138701,0.0,0 STARLINK-4556,1 53578U 22101BD  22304.91668981 -.01138701  00000-0 -24007-1 0  9990,2 53578  53.2169 154.0940 0001239  89.7218 173.0639 15.47290996  1304,6802.792,93.066,425.5,423.814,0.0
53578.0,STARLINK-4556,PAYLOAD,2022-11-01 14:00:01,15.45668764,0.0001177,53.2169,150.9223,63.9724,312.3759,-0.025551,-0.01144936,0.0,0 STARLINK-4556,1 53578U 22101BD  22305.58334491 -.01144936  00000-0 -25551-1 0  9992,2 53578  53.2169 150.9223 0001177  63.9724 312.3759 15.45668764 11627,6807.551,93.164,430.217,428.615,0.0
53578.0,STARLINK-4556,PAYLOAD,2022-11-01 22:00:00,15.44862036,0.0001198,53.2172,149.3421,78.9316,352.7605,-0.02655,-0.01156068,0.0,0 STARLINK-4556,1 53578U 22101BD  22305.91667824 -.01156068  00000-0 -26550-1 0  9997,2 53578  53.2172 149.3421 0001198  78.9316 352.7605 15.44862036  1308,6809.92,93.212,432.601,430.97,0.0
53578.0,STARLINK-4556,PAYLOAD,2022-11-02 14:00:01,15.43225585,0.0001337,53.2177,146.1817,90.0772,89.3815,-0.027688,-0.01141475,0.0,0 STARLINK-4556,1 53578U 22101BD  22306.58334491 -.01141475  00000-0 -27688-1 0  9991,2 53578  53.2177 146.1817 0001337  90.0772  89.3815 15.43225585  1300,6814.734,93.311,437.51,435.68800000000016,0.0
53578.0,STARLINK-4556,PAYLOAD,2022-11-02 22:00:00,15.42411163,0.0001453,53.2177,144.6074,61.3731,170.4989,-0.028438,-0.01140619,0.0,0 STARLINK-4556,1 53578U 22101BD  22306.91667824 -.01140619  00000-0 -28438-1 0  9990,2 53578  53.2177 144.6074 0001453  61.3731 170.4989 15.42411163  1305,6817.132,93.36,439.98800000000006,438.007,0.0
53578.0,STARLINK-4556,PAYLOAD,2022-11-03 14:00:01,15.40802096,0.0001204,53.2169,141.4596,66.0256,267.7323,-0.03073,-0.01165305,0.0,0 STARLINK-4556,1 53578U 22101BD  22307.58334491 -.01165305  00000-0 -30730-1 0  9992,2 53578  53.2169 141.4596 0001204  66.0256 267.7323 15.40802096 11926,6821.878000000002,93.458,444.564,442.921,0.0
53578.0,STARLINK-4556,PAYLOAD,2022-11-04 00:00:00,15.39762935,0.0001443,53.2174,139.4982,54.7606,70.705,-0.030892,-0.01134536,0.0,0 STARLINK-4556,1 53578U 22101BD  22308.00001157 -.01134536  00000-0 -30892-1 0  9991,2 53578  53.2174 139.4982 0001443  54.7606  70.7050 15.39762935  1301,6824.946999999999,93.521,447.797,445.827,0.0
53578.0,STARLINK-4556,PAYLOAD,2022-11-04 14:00:01,15.38341726,0.0001395999999999,53.2178,136.7538,60.4166,58.859,-0.032514,-0.01138964,0.0,0 STARLINK-4556,1 53578U 22101BD  22308.58334491 -.01138964  00000-0 -32514-1 0  9996,2 53578  53.2178 136.7538 0001396  60.4166  58.8590 15.38341726  1300,6829.15,93.607,451.968,450.061,0.0
53578.0,STARLINK-4556,PAYLOAD,2022-11-04 22:00:01,15.37551283,0.0001541,53.2168,135.1918,70.6097,95.264,-0.034388,-0.01170791,0.0,0 STARLINK-4556,1 53578U 22101BD  22308.91668981 -.01170791  00000-0 -34388-1 0  9992,2 53578  53.2168 135.1918 0001541  70.6097  95.2640 15.37551283 12136,6831.49,93.655,454.408,452.302,0.0
53578.0,STARLINK-4556,PAYLOAD,2022-11-05 00:00:00,15.37321539,0.000132,53.217,134.8005,72.8996,194.4066,-0.033451,-0.01133763,0.0,0 STARLINK-4556,1 53578U 22101BD  22309.00001157 -.01133763  00000-0 -33451-1 0  9997,2 53578  53.2170 134.8005 0001320  72.8996 194.4066 15.37321539  1309,6832.170999999999,93.669,454.937,453.134,0.0
53578.0,STARLINK-4556,PAYLOAD,2022-11-05 14:00:01,15.35927609,0.0001234,53.2166,132.0663,69.64399999999999,186.389,-0.036409,-0.01175336,0.0,0 STARLINK-4556,1 53578U 22101BD  22309.58335648 -.01175336  00000-0 -36409-1 0  9993,2 53578  53.2166 132.0663 0001234  69.6440 186.3890 15.35927609  1309,6836.304,93.754,459.012,457.325,0.0
53578.0,STARLINK-4556,PAYLOAD,2022-11-05 22:00:01,15.35059546,0.0001221,53.2166,130.5097,76.5395,223.132,-0.034863,-0.01101094,0.0,0 STARLINK-4556,1 53578U 22101BD  22309.91668981 -.01101094  00000-0 -34863-1 0  9991,2 53578  53.2166 130.5097 0001221  76.5395 223.1320 15.35059546  1309,6838.880999999999,93.807,461.581,459.911,0.0
53578.0,STARLINK-4556,PAYLOAD,2022-11-06 06:00:00,15.34278195,0.0001228,53.2167,128.9512,58.0431,284.1854,-0.037353,-0.01146264,0.0,0 STARLINK-4556,1 53578U 22101BD  22310.25001157 -.01146264  00000-0 -37353-1 0  9991,2 53578  53.2167 128.9512 0001228  58.0431 284.1854 15.34278195 12343,6841.2019999999975,93.855,463.907,462.227,0.0
53578.0,STARLINK-4556,PAYLOAD,2022-11-06 14:00:01,15.33496097,0.0001252,53.2164,127.3959,58.9764,324.8936,-0.039805,-0.01187345,0.0,0 STARLINK-4556,1 53578U 22101BD  22310.58334491 -.01187345  00000-0 -39805-1 0  9996,2 53578  53.2164 127.3959 0001252  58.9764 324.8936 15.33496097  1302,6843.528,93.903,466.25,464.536,0.0
53578.0,STARLINK-4556,PAYLOAD,2022-11-07 06:00:00,15.31849776,0.0001473,53.2168,124.2921,52.8576,51.4039,-0.040977,-0.01162659,0.0,0 STARLINK-4556,1 53578U 22101BD  22311.25001157 -.01162659  00000-0 -40977-1 0  9994,2 53578  53.2168 124.2921 0001473  52.8576  51.4039 15.31849776 12493,6848.431,94.004,471.304,469.287,0.0
53578.0,STARLINK-4556,PAYLOAD,2022-11-07 22:00:00,15.30199613,0.000157,53.2174,121.1968,54.3048,126.4366,-0.041827,-0.01130063,0.0,0 STARLINK-4556,1 53578U 22101BD  22311.91667824 -.01130063  00000-0 -41827-1 0  9995,2 53578  53.2174 121.1968 0001570  54.3048 126.4366 15.30199613  1307,6853.353,94.105,476.294,474.142,0.0
53578.0,STARLINK-4556,PAYLOAD,2022-11-08 08:00:01,15.29184211,0.0001246,53.2173,119.2633,62.2948,254.2549,-0.043289,-0.01132887,0.0,0 STARLINK-4556,1 53578U 22101BD  22312.33334491 -.01132887  00000-0 -43289-1 0  9993,2 53578  53.2173 119.2633 0001246  62.2948 254.2549 15.29184211 12660,6856.387,94.168,479.106,477.397,0.0
53578.0,STARLINK-4556,PAYLOAD,2022-11-08 14:00:01,15.28642594,0.0001289,53.2166,118.1067,65.1609,188.1033,-0.047828,-0.01239124,0.0,0 STARLINK-4556,1 53578U 22101BD  22312.58334491 -.01239124  00000-0 -47828-1 0  9995,2 53578  53.2166 118.1067 0001289  65.1609 188.1033 15.28642594  1308,6858.005999999999,94.201,480.755,478.987,0.0
53578.0,STARLINK-4556,PAYLOAD,2022-11-08 22:00:00,15.27675101,0.0001364,53.2166,116.5669,71.086,217.0675,-0.040276,-0.01016033,0.0,0 STARLINK-4556,1 53578U 22101BD  22312.91667824 -.01016033  00000-0 -40276-1 0  9993,2 53578  53.2166 116.5669 0001364  71.0860 217.0675 15.27675101  1300,6860.901,94.261,483.702,481.831,0.0
